{"epoch":1784710044,"count":18256,"objects":[{"id":"53253","name":"STARLINK-4133","type":"PAYLOAD","l1":"1 53253U 22086M   26202.02921073 -.00000295  00000-0  22463-5 0  9991","l2":"2 53253  53.1594 311.6305 0001161  73.9810 286.1319 15.31700613221241"},{"id":"53254","name":"STARLINK-4134","type":"PAYLOAD","l1":"1 53254U 22086N   26201.31952825  .00000289  00000-0  36237-4 0  9997","l2":"2 53254  53.1612 318.4418 0001056  87.3084 272.8029 15.08834907221101"},{"id":"53255","name":"STARLINK-4142","type":"PAYLOAD","l1":"1 53255U 22086P   26202.56241068  .00000260  00000-0  34438-4 0  9996","l2":"2 53255  53.1611 312.8433 0001242  87.0104 273.1029 15.08834874221278"},{"id":"53256","name":"STARLINK-4147","type":"PAYLOAD","l1":"1 53256U 22086Q   26202.56608860  .00000240  00000-0  33188-4 0  9993","l2":"2 53256  53.1575 312.8299 0001017  87.8714 272.2394 15.08836548221278"},{"id":"53257","name":"STARLINK-4144","type":"PAYLOAD","l1":"1 53257U 22086R   26202.02145336  .00000105  00000-0  24684-4 0  9990","l2":"2 53257  53.1604 315.2784 0001140  88.4845 271.6277 15.08832767221190"},{"id":"53258","name":"STARLINK-4127","type":"PAYLOAD","l1":"1 53258U 22086S   26201.30017301  .00000798  00000-0  68222-4 0  9995","l2":"2 53258  53.1609 318.5200 0001062  92.8954 267.2159 15.08828895221083"},{"id":"53259","name":"STARLINK-4140","type":"PAYLOAD","l1":"1 53259U 22086T   26202.58076606 -.00000187  00000-0  63447-5 0  9998","l2":"2 53259  53.1602 312.4016 0001143  92.5263 267.5859 15.08832515221281"},{"id":"53261","name":"STARLINK-4062","type":"PAYLOAD","l1":"1 53261U 22086V   26202.58335648 -.00005941  00000-0 -15956-3 0  9999","l2":"2 53261  53.1594 310.3964 0000689  61.4046 304.7852 15.35401419  5744"},{"id":"53262","name":"STARLINK-4085","type":"PAYLOAD","l1":"1 53262U 22086W   26202.58127283  .00003432  00000-0  11559-3 0  9990","l2":"2 53262  53.1622 310.3195 0001074  92.4269 267.6856 15.33558491221318"},{"id":"53263","name":"STARLINK-4130","type":"PAYLOAD","l1":"1 53263U 22086X   26202.43035469  .00003571  00000-0  13604-3 0  9996","l2":"2 53263  53.1589 309.5168 0001204  88.7620 271.3519 15.29353798221311"},{"id":"53264","name":"STARLINK-3950","type":"PAYLOAD","l1":"1 53264U 22086Y   26202.58335648  .00075116  00000-0  24131-2 0  9995","l2":"2 53264  53.1589 311.0697 0000454  68.4919 291.4777 15.31633137  5847"},{"id":"53265","name":"STARLINK-4097","type":"PAYLOAD","l1":"1 53265U 22086Z   26202.58335648  .00038273  00000-0  14928-2 0  9992","l2":"2 53265  53.1608 311.0602 0001873  67.7658  19.7211 15.25592335  5799"},{"id":"53266","name":"STARLINK-4058","type":"PAYLOAD","l1":"1 53266U 22086AA  26202.58335648 -.00003031  00000-0 -80854-4 0  9992","l2":"2 53266  53.1599 310.3804 0001083  72.1855 342.0455 15.33554074  5796"},{"id":"53267","name":"STARLINK-4060","type":"PAYLOAD","l1":"1 53267U 22086AB  26202.58335648  .00065257  00000-0  18759-2 0  9992","l2":"2 53267  53.1602 310.4223 0001307  59.8733  32.4693 15.35226028  5740"},{"id":"53268","name":"STARLINK-4109","type":"PAYLOAD","l1":"1 53268U 22086AC  26202.60230364 -.00000629  00000-0 -10936-4 0  9990","l2":"2 53268  53.1592 309.2876 0001812  85.4379 274.6827 15.26023373221333"},{"id":"53272","name":"STARLINK-4122","type":"PAYLOAD","l1":"1 53272U 22086AG  26202.54993664  .00000784  00000-0  33379-4 0  9993","l2":"2 53272  53.1607 298.3211 0001102  78.6512 281.4615 15.35403500221471"},{"id":"53273","name":"STARLINK-4051","type":"PAYLOAD","l1":"1 53273U 22086AH  26201.98667101 -.00003346  00000-0 -90386-4 0  9995","l2":"2 53273  53.1592 301.3982 0002352  91.0964 269.0307 15.33555933221378"},{"id":"53274","name":"STARLINK-4050","type":"PAYLOAD","l1":"1 53274U 22086AJ  26202.56816117  .00000327  00000-0  21253-4 0  9995","l2":"2 53274  53.1606 298.5114 0001000  70.4155 289.6955 15.33550206221477"},{"id":"53275","name":"STARLINK-4179","type":"PAYLOAD","l1":"1 53275U 22086AK  26202.56291616  .00001976  00000-0  67531-4 0  9997","l2":"2 53275  53.1605 299.3370 0001277  68.7152 291.3988 15.35405238221453"},{"id":"53276","name":"STARLINK-4174","type":"PAYLOAD","l1":"1 53276U 22086AL  26202.58335648  .00008689  00000-0  25976-3 0  9998","l2":"2 53276  53.1587 298.4956 0001244  65.1726  33.3231 15.35392843  5873"},{"id":"53277","name":"STARLINK-4178","type":"PAYLOAD","l1":"1 53277U 22086AM  26202.60465085  .00012896  00000-0  49843-3 0  9995","l2":"2 53277  53.1618 299.7112 0001293  92.1222 267.9926 15.26589517221458"},{"id":"53278","name":"STARLINK-4180","type":"PAYLOAD","l1":"1 53278U 22086AN  26201.01554126 -.00000549  00000-0 -59251-5 0  9995","l2":"2 53278  53.1588 306.7801 0001124  85.5623 274.5507 15.31695229221210"},{"id":"53280","name":"STARLINK-4169","type":"PAYLOAD","l1":"1 53280U 22086AQ  26202.58335648  .01235322  00000-0  40078-1 0  9998","l2":"2 53280  53.1595 255.5879 0001648  57.2750   7.2168 15.28661329  5792"},{"id":"53282","name":"STARLINK-4164","type":"PAYLOAD","l1":"1 53282U 22086AS  26202.60130766 -.00001469  00000-0 -33336-4 0  9993","l2":"2 53282  53.1599 298.2859 0001259  81.5977 278.5168 15.33548049221476"},{"id":"53283","name":"STARLINK-4175","type":"PAYLOAD","l1":"1 53283U 22086AT  26202.54070041  .00000054  00000-0  12980-4 0  9995","l2":"2 53283  53.1603 298.7371 0001122  80.1651 279.9478 15.33550499221460"},{"id":"53285","name":"STARLINK-4173","type":"PAYLOAD","l1":"1 53285U 22086AV  26202.58335648  .00015994  00000-0  46870-3 0  9991","l2":"2 53285  53.1601 298.5783 0001041  71.9981 203.1422 15.35382927  5828"},{"id":"53286","name":"STARLINK-4165","type":"PAYLOAD","l1":"1 53286U 22086AW  26201.31848663  .00000416  00000-0  25175-4 0  9997","l2":"2 53286  53.1599 305.3569 0001420  79.8936 280.2225 15.31703866221251"},{"id":"53287","name":"STARLINK-4107","type":"PAYLOAD","l1":"1 53287U 22086AX  26202.58193334  .00000305  00000-0  20602-4 0  9993","l2":"2 53287  53.1616 298.4794 0001263  82.3002 277.8143 15.33550643221461"},{"id":"53288","name":"STARLINK-4162","type":"PAYLOAD","l1":"1 53288U 22086AY  26202.58335648  .00073811  00000-0  22071-2 0  9992","l2":"2 53288  53.1592 298.8059 0001205  72.8877  65.8828 15.33927404  5821"},{"id":"53289","name":"STARLINK-4176","type":"PAYLOAD","l1":"1 53289U 22086AZ  26202.58335648  .00018361  00000-0  55351-3 0  9990","l2":"2 53289  53.1581 294.1862 0001095  75.1901 127.3333 15.34382933  5808"}]}