OBJECT_NAME,OBJECT_ID,EPOCH,MEAN_MOTION,ECCENTRICITY,INCLINATION,RA_OF_ASC_NODE,ARG_OF_PERICENTER,MEAN_ANOMALY,EPHEMERIS_TYPE,CLASSIFICATION_TYPE,NORAD_CAT_ID,ELEMENT_SET_NO,REV_AT_EPOCH,BSTAR,MEAN_MOTION_DOT,MEAN_MOTION_DDOT
STARLINK-4133,2022-086M,2026-07-21T00:42:03.807072,15.31700613,.00011609,53.1594,311.6305,73.9810,286.1319,0,U,53253,999,22124,.2246253E-5,-.295E-5,0
STARLINK-4134,2022-086N,2026-07-20T07:40:07.240800,15.08834907,.00010563,53.1612,318.4418,87.3084,272.8029,0,U,53254,999,22110,.36237416E-4,.289E-5,0
STARLINK-4142,2022-086P,2026-07-21T13:29:52.282752,15.08834874,.00012423,53.1611,312.8433,87.0104,273.1029,0,U,53255,999,22127,.34437941E-4,.26E-5,0
STARLINK-4147,2022-086Q,2026-07-21T13:35:10.055040,15.08836548,.00010166,53.1575,312.8299,87.8714,272.2394,0,U,53256,999,22127,.33188324E-4,.24E-5,0
STARLINK-4144,2022-086R,2026-07-21T00:30:53.570304,15.08832767,.00011403,53.1604,315.2784,88.4845,271.6277,0,U,53257,999,22119,.24683726E-4,.105E-5,0
STARLINK-4127,2022-086S,2026-07-20T07:12:14.948064,15.08828895,.00010619,53.1609,318.5200,92.8954,267.2159,0,U,53258,999,22108,.68222052E-4,.798E-5,0
STARLINK-4140,2022-086T,2026-07-21T13:56:18.187584,15.08832515,.00011433,53.1602,312.4016,92.5263,267.5859,0,U,53259,999,22128,.6344729E-5,-.187E-5,0
STARLINK-4062,2022-086V,2026-07-21T14:00:01.999872,15.35401419,.00006885,53.1594,310.3964,61.4046,304.7852,0,U,53261,999,574,-.15955614E-3,-.5941E-4,0
STARLINK-4085,2022-086W,2026-07-21T13:57:01.972512,15.33558491,.0001074,53.1622,310.3195,92.4269,267.6856,0,U,53262,999,22131,.11559442E-3,.3432E-4,0
STARLINK-4130,2022-086X,2026-07-21T10:19:42.645216,15.29353798,.00012039,53.1589,309.5168,88.7620,271.3519,0,U,53263,999,22131,.13603825E-3,.3571E-4,0
STARLINK-3950,2022-086Y,2026-07-21T14:00:01.999872,15.31633137,.00004537,53.1589,311.0697,68.4919,291.4777,0,U,53264,999,584,.24131178E-2,.75116E-3,0
STARLINK-4097,2022-086Z,2026-07-21T14:00:01.999872,15.25592335,.00018728,53.1608,311.0602,67.7658,19.7211,0,U,53265,999,579,.14928074E-2,.38273E-3,0
STARLINK-4058,2022-086AA,2026-07-21T14:00:01.999872,15.33554074,.00010826,53.1599,310.3804,72.1855,342.0455,0,U,53266,999,579,-.80854097E-4,-.3031E-4,0
STARLINK-4060,2022-086AB,2026-07-21T14:00:01.999872,15.35226028,.00013071,53.1602,310.4223,59.8733,32.4693,0,U,53267,999,574,.18758786E-2,.65257E-3,0
STARLINK-4109,2022-086AC,2026-07-21T14:27:19.034496,15.26023373,.00018119,53.1592,309.2876,85.4379,274.6827,0,U,53268,999,22133,-.10936463E-4,-.629E-5,0
STARLINK-4122,2022-086AG,2026-07-21T13:11:54.525696,15.35403500,.00011016,53.1607,298.3211,78.6512,281.4615,0,U,53272,999,22147,.33378922E-4,.784E-5,0
STARLINK-4051,2022-086AH,2026-07-20T23:40:48.375264,15.33555933,.00023519,53.1592,301.3982,91.0964,269.0307,0,U,53273,999,22137,-.9038581E-4,-.3346E-4,0
STARLINK-4050,2022-086AJ,2026-07-21T13:38:09.125088,15.33550206,.00010003,53.1606,298.5114,70.4155,289.6955,0,U,53274,999,22147,.21253324E-4,.327E-5,0
STARLINK-4179,2022-086AK,2026-07-21T13:30:35.956224,15.35405238,.0001277,53.1605,299.3370,68.7152,291.3988,0,U,53275,999,22145,.67531284E-4,.1976E-4,0
STARLINK-4174,2022-086AL,2026-07-21T14:00:01.999872,15.35392843,.00012439,53.1587,298.4956,65.1726,33.3231,0,U,53276,999,587,.25976431E-3,.8689E-4,0
STARLINK-4178,2022-086AM,2026-07-21T14:30:41.833440,15.26589517,.00012926,53.1618,299.7112,92.1222,267.9926,0,U,53277,999,22145,.49843484E-3,.12896E-3,0
STARLINK-4180,2022-086AN,2026-07-20T00:22:22.764864,15.31695229,.00011242,53.1588,306.7801,85.5623,274.5507,0,U,53278,999,22121,-.592507E-5,-.549E-5,0
STARLINK-4169,2022-086AQ,2026-07-21T14:00:01.999872,15.28661329,.00016477,53.1595,255.5879,57.2750,7.2168,0,U,53280,999,579,.40077777E-1,.1235322E-1,0
STARLINK-4164,2022-086AS,2026-07-21T14:25:52.981824,15.33548049,.00012592,53.1599,298.2859,81.5977,278.5168,0,U,53282,999,22147,-.3333583E-4,-.1469E-4,0
STARLINK-4175,2022-086AT,2026-07-21T12:58:36.515424,15.33550499,.00011225,53.1603,298.7371,80.1651,279.9478,0,U,53283,999,22146,.1298038E-4,.54E-6,0
STARLINK-4173,2022-086AV,2026-07-21T14:00:01.999872,15.35382927,.00010414,53.1601,298.5783,71.9981,203.1422,0,U,53285,999,582,.4686989E-3,.15994E-3,0
STARLINK-4165,2022-086AW,2026-07-20T07:38:37.244832,15.31703866,.00014195,53.1599,305.3569,79.8936,280.2225,0,U,53286,999,22125,.25174549E-4,.416E-5,0
STARLINK-4107,2022-086AX,2026-07-21T13:57:59.040576,15.33550643,.00012631,53.1616,298.4794,82.3002,277.8143,0,U,53287,999,22146,.20601829E-4,.305E-5,0
STARLINK-4162,2022-086AY,2026-07-21T14:00:01.999872,15.33927404,.00012049,53.1592,298.8059,72.8877,65.8828,0,U,53288,999,582,.22070785E-2,.73811E-3,0
STARLINK-4176,2022-086AZ,2026-07-21T14:00:01.999872,15.34382933,.00010947,53.1581,294.1862,75.1901,127.3333,0,U,53289,999,580,.55351029E-3,.18361E-3,0
